     2.100          NAVIGATION                              RINEX VERSION / TYPE
fic2rin                                 10/29/2012 00:12:42 PGM / RUN BY / DATE
                                                            END OF HEADER
22 12 10 28 12  0  0.0  .150158070028D-03  .568434188608D-12  .000000000000D+00
     .490000000000D+02  .968437500000D+02  .499699385914D-08  .236714784647D+01
     .501610338688D-05  .623193592764D-02  .967644155025D-05  .515367759514D+04
     .432000000000D+05  .577419996262D-07 -.293119629915D+01 -.121071934700D-06
     .926820180364D+00  .173187500000D+03 -.201030254476D+01 -.818426947910D-08
     .233938315898D-09  .100000000000D+01  .171200000000D+04  .000000000000D+00
     .340000000000D+01  .000000000000D+00 -.172294676304D-07  .490000000000D+02
     .360060000000D+05  .400000000000D+01
23 12 10 28 12  0  0.0  .149791128933D-03 -.386535248253D-11  .000000000000D+00
     .960000000000D+02  .133437500000D+02  .488913222341D-08  .460996604508D+00
     .756233930588D-06  .822684692685D-02  .148266553879D-05  .515356671333D+04
     .432000000000D+05  .139698386192D-06 -.187913013708D+01  .124797224998D-06
     .958057210334D+00  .348468750000D+03 -.291813391094D+01 -.860357265905D-08
     .101075638777D-09  .100000000000D+01  .171200000000D+04  .000000000000D+00
     .240000000000D+01  .000000000000D+00 -.204890966415D-07  .960000000000D+02
     .360060000000D+05  .400000000000D+01
24 12 10 28 12  0  0.0  .293692573905D-05  .159161572810D-11  .000000000000D+00
     .680000000000D+02 -.117812500000D+03  .431732269096D-08  .286851958263D+01
    -.630505383015D-05  .120189040899D-03  .861100852489D-05  .517666727829D+04
     .432000000000D+05  .502914190292D-07 -.852271374535D+00  .149011611938D-07
     .959402803846D+00  .207718750000D+03 -.130147901567D+01 -.787175646168D-08
    -.273582824394D-09  .100000000000D+01  .171200000000D+04  .000000000000D+00
     .340000000000D+01  .630000000000D+02  .465661287308D-08  .680000000000D+02
     .360060000000D+05  .400000000000D+01
25 12 10 28 12  0  0.0  .484539195895D-04  .170530256582D-11  .000000000000D+00
     .850000000000D+02  .109687500000D+02  .423517641210D-08 -.261231688590D+01
     .560656189919D-06  .182723975740D-02  .111050903797D-04  .515364017105D+04
     .432000000000D+05  .614672899246D-07  .193779367871D+00 -.856816768646D-07
     .970800082612D+00  .170250000000D+03  .728393853213D+00 -.776496629916D-08
     .504663878419D-09  .100000000000D+01  .171200000000D+04  .000000000000D+00
     .240000000000D+01  .000000000000D+00  .512227416039D-08  .850000000000D+02
     .360060000000D+05  .400000000000D+01
26 12 10 28 12  0  0.0 -.230375677347D-03  .135287336889D-10  .000000000000D+00
     .470000000000D+02  .287500000000D+01  .446447167745D-08  .310340559387D+00
     .912696123123D-07  .208298263606D-01  .211782753468D-05  .515365483093D+04
     .432000000000D+05 -.342726707458D-06 -.180301407786D+01  .115483999252D-06
     .981194422778D+00  .351687500000D+03  .120992296208D+01 -.866286084293D-08
    -.485734518507D-10  .100000000000D+01  .171200000000D+04  .000000000000D+00
     .240000000000D+01  .000000000000D+00 -.605359673500D-08  .470000000000D+02
     .360060000000D+05  .400000000000D+01
28 12 10 28 12  0  0.0  .199261587113D-03  .363797880709D-11  .000000000000D+00
     .310000000000D+02  .181562500000D+02  .393123518030D-08  .231686719555D+01
     .817701220512D-06  .182210610947D-01  .111367553473D-04  .515363518524D+04
     .432000000000D+05  .191852450371D-06  .254370260182D+00 -.206753611565D-06
     .981094269943D+00  .172062500000D+03 -.181664455374D+01 -.736816405647D-08
     .530736393015D-09  .100000000000D+01  .171200000000D+04  .000000000000D+00
     .240000000000D+01  .000000000000D+00 -.107102096081D-07  .310000000000D+02
     .360060000000D+05  .400000000000D+01
29 12 10 28 12  0  0.0  .370932277292D-03  .397903932026D-11  .000000000000D+00
     .740000000000D+02  .634375000000D+01  .494842040729D-08 -.182871434033D+01
     .216066837311D-06  .176198349800D-02  .424683094025D-05  .515375252342D+04
     .432000000000D+05 -.782310962677D-07  .129545631067D+01  .484287738800D-07
     .964019272986D+00  .297187500000D+03 -.108463430120D+01 -.828891669522D-08
    -.389301930274D-10  .100000000000D+01  .171200000000D+04  .000000000000D+00
     .240000000000D+01  .000000000000D+00 -.931322574615D-08  .740000000000D+02
     .360060000000D+05  .400000000000D+01
30 12 10 28 12  0  0.0 -.344805419445D-03  .163709046319D-10  .000000000000D+00
     .730000000000D+02 -.178125000000D+01  .440411202037D-08  .150826468347D+01
    -.182539224625D-06  .110409404151D-01  .111050903797D-04  .515373505402D+04
     .432000000000D+05  .000000000000D+00  .101535255637D+00 -.335276126862D-06
     .961986358136D+00  .167000000000D+03  .161447291785D+01 -.783604068826D-08
     .448232956416D-09  .100000000000D+01  .171200000000D+04  .000000000000D+00
     .965000000000D+01  .000000000000D+00 -.465661287308D-08  .730000000000D+02
     .360060000000D+05  .400000000000D+01
31 12 10 28 12  0  0.0  .283399596810D-03  .227373675443D-11  .000000000000D+00
     .280000000000D+02 -.103000000000D+03  .405409744086D-08 -.117810308653D+01
    -.554881989956D-05  .793835625518D-02  .873208045959D-05  .515375596809D+04
     .432000000000D+05 -.130385160446D-06 -.823496394730D+00 -.726431608200D-07
     .980908166282D+00  .225875000000D+03 -.854045581101D+00 -.793247327650D-08
    -.153934983439D-09  .100000000000D+01  .171200000000D+04  .000000000000D+00
     .240000000000D+01  .000000000000D+00 -.135041773319D-07  .280000000000D+02
     .360060000000D+05  .400000000000D+01
32 12 10 28 12  0  0.0 -.502543989569D-03 -.363797880709D-11  .000000000000D+00
     .880000000000D+02  .975625000000D+02  .455268963780D-08 -.558843935830D+00
     .507012009621D-05  .118082434637D-01  .866129994392D-05  .515354920387D+04
     .432000000000D+05 -.149011611938D-07 -.285244028868D+01 -.294297933578D-06
     .951003212461D+00  .210500000000D+03 -.485017840791D+00 -.819498421113D-08
     .263582407837D-09  .100000000000D+01  .171200000000D+04  .000000000000D+00
     .240000000000D+01  .000000000000D+00 -.325962901115D-08  .880000000000D+02
     .360060000000D+05  .400000000000D+01
 6 12 10 28 11 59 44.0  .473123509437D-03 -.100044417195D-10  .000000000000D+00
     .200000000000D+02  .167812500000D+02  .559416159071D-08  .226404443335D+01
     .102818012238D-05  .736485421658D-02  .401027500629D-05  .515367967415D+04
     .431840000000D+05  .115483999252D-06  .118917675465D+01  .208616256714D-06
     .938865126610D+00  .288781250000D+03 -.423658208436D+00 -.862000191482D-08
     .564309220030D-10  .100000000000D+01  .171200000000D+04  .000000000000D+00
     .240000000000D+01  .000000000000D+00 -.512227416039D-08  .200000000000D+02
     .382860000000D+05  .400000000000D+01
 4 12 10 28 11 59 44.0  .294069759548D-04  .111413100967D-10  .000000000000D+00
     .300000000000D+01 -.362812500000D+02  .493484841339D-08 -.280105707884D+01
    -.195764005184D-05  .103719957406D-01  .100638717413D-04  .515368527412D+04
     .431840000000D+05  .150874257088D-06  .229491151182D+01 -.145286321640D-06
     .937706378457D+00  .171437500000D+03  .923592969914D+00 -.808569394447D-08
    -.595739100639D-09  .100000000000D+01  .171200000000D+04  .000000000000D+00
     .240000000000D+01  .000000000000D+00 -.651925802231D-08  .300000000000D+01
     .417960000000D+05  .400000000000D+01
23 12 10 28 11 59 44.0  .149792525917D-03 -.386535248253D-11  .000000000000D+00
     .110000000000D+02  .133437500000D+02  .488913222341D-08  .458662445566D+00
     .756233930588D-06  .822685018647D-02  .148266553879D-05  .515356671143D+04
     .431840000000D+05  .139698386192D-06 -.187913001420D+01  .124797224998D-06
     .958057192779D+00  .348468750000D+03 -.291813361689D+01 -.860357265905D-08
     .101075638777D-09  .100000000000D+01  .171200000000D+04  .000000000000D+00
     .240000000000D+01  .000000000000D+00 -.204890966415D-07  .110000000000D+02
     .420960000000D+05  .400000000000D+01
 4 12 10 28 13 59 44.0  .294875353575D-04  .111413100967D-10  .000000000000D+00
     .700000000000D+01 -.290312500000D+02  .500056543648D-08 -.175106716179D+01
    -.154227018356D-05  .103737160098D-01  .912509858608D-05  .515368040848D+04
     .503840000000D+05  .184401869774D-06  .229485292049D+01 -.149011611938D-07
     .937702490021D+00  .188781250000D+03  .923781841416D+00 -.809569436102D-08
    -.522164607395D-09  .100000000000D+01  .171200000000D+04  .000000000000D+00
     .240000000000D+01  .000000000000D+00 -.651925802231D-08  .700000000000D+01
     .432060000000D+05  .400000000000D+01
 6 12 10 28 13 59 44.0  .473051797599D-03 -.100044417195D-10  .000000000000D+00
     .210000000000D+02  .241875000000D+02  .553808782644D-08 -.296891447461D+01
     .136159360409D-05  .736585562117D-02  .412203371525D-05  .515367771339D+04
     .503840000000D+05 -.113621354103D-06  .118911434364D+01  .763684511185D-07
     .938866743134D+00  .287718750000D+03 -.423698694694D+00 -.845642367256D-08
     .211437378644D-09  .100000000000D+01  .171200000000D+04  .000000000000D+00
     .240000000000D+01  .000000000000D+00 -.512227416039D-08  .210000000000D+02
     .432060000000D+05  .400000000000D+01
23 12 10 28 13 59 44.0  .149764586240D-03 -.386535248253D-11  .000000000000D+00
     .120000000000D+02  .199375000000D+02  .484341603343D-08  .150883555653D+01
     .112876296043D-05  .822752015665D-02  .171922147274D-05  .515356839180D+04
     .503840000000D+05 -.428408384323D-07 -.187919089061D+01  .104308128357D-06
     .958057586304D+00  .345843750000D+03 -.291805920264D+01 -.852499795753D-08
    -.221437795202D-10  .100000000000D+01  .171200000000D+04  .000000000000D+00
     .240000000000D+01  .000000000000D+00 -.204890966415D-07  .120000000000D+02
     .432060000000D+05  .400000000000D+01
